[Satellite]
VERSION=1.1
NAME=SWARM C
NICKNAME=SWARM C
TLE1=1 39453U 13067C   20157.72742024  .00000949  00000-0  19438-4 0  9995
TLE2=2 39453  87.3459 135.9686 0003632  86.3607 273.8066 15.44541140367337
STATUS=0
